STARLINK-36953          
1 68010U 26039AA  26062.58336806 -.01119137  42331-3 -16099-2 0  9998
2 68010  42.9993  92.9231 0001754 282.6198   0.3392 16.04501255  1896
STARLINK-36991          
1 68011U 26039AB  26062.58336806 -.01112963  41964-3 -15891-2 0  9999
2 68011  42.9993  92.9214 0001787 281.7453   1.9540 16.04622844  1898
STARLINK-36936          
1 68012U 26039AC  26062.58336806 -.01112236  42031-3 -15645-2 0  9996
2 68012  42.9993  92.9175 0001870 280.5022   4.6506 16.04866317  1894
STARLINK-36967          
1 68013U 26039AD  26062.58336806 -.01125370  42698-3 -16320-2 0  9990
2 68013  42.9993  92.9250 0001731 283.1550 359.0318 16.04369451  1895
STARLINK-36985          
1 68014U 26039AE  26062.58336806 -.01109191  41758-3 -15729-2 0  9992
2 68014  42.9993  92.9195 0001760 282.4628   1.9469 16.04734324  1899
